EWS-G2 (GOES 15)        
1 36411U 10008A   25125.92870416  .00000029  00000+0  00000+0 0  9995
2 36411   0.2207  85.9273 0001673 181.4339 352.5756  1.00276257 55551
GOES 16                 
1 41866U 16071A   25125.86591859 -.00000178  00000+0  00000+0 0  9991
2 41866   0.0472 272.5682 0000914 198.1189 336.8734  1.00128026 31012
GOES 17                 
1 43226U 18022A   25126.20808865 -.00000099  00000+0  00000+0 0  9990
2 43226   0.0396  74.8297 0002386  18.6818 101.3126  1.00270879 26359
GOES 18                 
1 51850U 22021A   25126.19851420  .00000091  00000+0  00000+0 0  9990
2 51850   0.0105 147.2765 0000090 286.5530  84.9371  1.00271270 11720
GOES 19                 
1 60133U 24119A   25125.79715995 -.00000255  00000+0  00000+0 0  9998
2 60133   0.0139 110.8003 0000349 328.7471 356.1414  1.00267666  2874
